start=new Date('2023-01-30T00:00:00.000Z').valueOf();
sats=[{"OBJECT_TYPE":"PAYLOAD","RCS_SIZE":"LARGE","MEAN_MOTION_DDOT":"0.0000000000000","ECCENTRICITY":"0.00013890","TLE_LINE1":"1 54820U 22177A   23029.91668981 -.01184006  00000-0 -39796-1 0  9999","OBJECT_NAME":"STARLINK-5382","EPHEMERIS_TYPE":"0","MEAN_ANOMALY":"348.3057","CLASSIFICATION_TYPE":"U","MEAN_MOTION":"15.33187177","BSTAR":"-0.03979600000000","ELEMENT_SET_NO":"999","GP_ID":"223959936","COUNTRY_CODE":"US","PERIOD":"93.922","MEAN_MOTION_DOT":"-0.01184006","DECAY_DATE":null,"PERIAPSIS":"465.362","ARG_OF_PERICENTER":"275.5764","TLE_LINE2":"2 54820  42.9987 181.5055 0001389 275.5764 348.3057 15.33187177  1309","OBJECT_ID":"2022-177A","SEMIMAJOR_AXIS":"6844.447","REV_AT_EPOCH":"130","NORAD_CAT_ID":"54820","LAUNCH_DATE":"2022-12-28","EPOCH":"2023-01-29T22:00:01.999584","SITE":"AFETR","FILE":"3765015","RA_OF_ASC_NODE":"181.5055","TIME_SYSTEM":"UTC","CENTER_NAME":"EARTH","MEAN_ELEMENT_THEORY":"SGP4","INCLINATION":"42.9987","REF_FRAME":"TEME","APOAPSIS":"467.263"},{"MEAN_MOTION_DDOT":"0.0000000000000","OBJECT_TYPE":"PAYLOAD","RCS_SIZE":"LARGE","TLE_LINE1":"1 54821U 22177B   23029.91668981 -.01186346  00000-0 -39504-1 0  9996","OBJECT_NAME":"STARLINK-5385","MEAN_ANOMALY":"357.6622","EPHEMERIS_TYPE":"0","CLASSIFICATION_TYPE":"U","ECCENTRICITY":"0.00014000","GP_ID":"223960681","ELEMENT_SET_NO":"999","BSTAR":"-0.03950400000000","MEAN_MOTION":"15.33486298","PERIOD":"93.904","MEAN_MOTION_DOT":"-0.01186346","COUNTRY_CODE":"US","ARG_OF_PERICENTER":"274.0873","PERIAPSIS":"464.464","DECAY_DATE":null,"EPOCH":"2023-01-29T22:00:01.999584","OBJECT_ID":"2022-177B","TLE_LINE2":"2 54821  42.9985 181.4871 0001400 274.0873 357.6622 15.33486298  1309","REV_AT_EPOCH":"130","SEMIMAJOR_AXIS":"6843.557","NORAD_CAT_ID":"54821","LAUNCH_DATE":"2022-12-28","RA_OF_ASC_NODE":"181.4871","TIME_SYSTEM":"UTC","CENTER_NAME":"EARTH","MEAN_ELEMENT_THEORY":"SGP4","SITE":"AFETR","FILE":"3765015","INCLINATION":"42.9985","REF_FRAME":"TEME","APOAPSIS":"466.380"},{"MEAN_MOTION_DOT":"-0.01195332","PERIOD":"93.842","COUNTRY_CODE":"US","ELEMENT_SET_NO":"999","GP_ID":"223959439","BSTAR":"-0.03856700000000","MEAN_MOTION":"15.34494844","CLASSIFICATION_TYPE":"U","EPHEMERIS_TYPE":"0","MEAN_ANOMALY":"25.4349","OBJECT_NAME":"STARLINK-5101","TLE_LINE1":"1 54822U 22177C   23029.91668981 -.01195332  00000-0 -38567-1 0  9990","ECCENTRICITY":"0.00015080","MEAN_MOTION_DDOT":"0.0000000000000","RCS_SIZE":"LARGE","OBJECT_TYPE":"PAYLOAD","APOAPSIS":"463.455","INCLINATION":"42.9983","REF_FRAME":"TEME","CENTER_NAME":"EARTH","TIME_SYSTEM":"UTC","MEAN_ELEMENT_THEORY":"SGP4","RA_OF_ASC_NODE":"181.4110","FILE":"3765015","SITE":"AFETR","EPOCH":"2023-01-29T22:00:01.999584","LAUNCH_DATE":"2022-12-28","NORAD_CAT_ID":"54822","REV_AT_EPOCH":"130","SEMIMAJOR_AXIS":"6840.558","OBJECT_ID":"2022-177C","TLE_LINE2":"2 54822  42.9983 181.4110 0001508 277.3890  25.4349 15.34494844  1301","PERIAPSIS":"461.392","ARG_OF_PERICENTER":"277.3890","DECAY_DATE":null},{"SITE":"AFETR","FILE":"3765015","RA_OF_ASC_NODE":"181.4775","TIME_SYSTEM":"UTC","MEAN_ELEMENT_THEORY":"SGP4","CENTER_NAME":"EARTH","REF_FRAME":"TEME","INCLINATION":"42.9984","APOAPSIS":"466.097","DECAY_DATE":null,"PERIAPSIS":"464.143","ARG_OF_PERICENTER":"267.4003","TLE_LINE2":"2 54823  42.9984 181.4775 0001428 267.4003   8.2699 15.33587821  1301","OBJECT_ID":"2022-177D","REV_AT_EPOCH":"130","SEMIMAJOR_AXIS":"6843.255","NORAD_CAT_ID":"54823","LAUNCH_DATE":"2022-12-28","EPOCH":"2023-01-29T22:00:01.999584","BSTAR":"-0.03935100000000","MEAN_MOTION":"15.33587821","GP_ID":"223959687","ELEMENT_SET_NO":"999","COUNTRY_CODE":"US","PERIOD":"93.897","MEAN_MOTION_DOT":"-0.01185662","OBJECT_TYPE":"PAYLOAD","RCS_SIZE":"LARGE","MEAN_MOTION_DDOT":"0.0000000000000","ECCENTRICITY":"0.00014280","TLE_LINE1":"1 54823U 22177D   23029.91668981 -.01185662  00000-0 -39351-1 0  9998","OBJECT_NAME":"STARLINK-5106","MEAN_ANOMALY":"8.2699","EPHEMERIS_TYPE":"0","CLASSIFICATION_TYPE":"U"},{"DECAY_DATE":null,"ARG_OF_PERICENTER":"275.3555","PERIAPSIS":"463.623","LAUNCH_DATE":"2022-12-28","NORAD_CAT_ID":"54824","REV_AT_EPOCH":"130","SEMIMAJOR_AXIS":"6842.736","TLE_LINE2":"2 54824  42.9987 181.4631 0001429 275.3555   5.7425 15.33762512  1308","OBJECT_ID":"2022-177E","EPOCH":"2023-01-29T22:00:01.999584","FILE":"3765015","SITE":"AFETR","TIME_SYSTEM":"UTC","CENTER_NAME":"EARTH","MEAN_ELEMENT_THEORY":"SGP4","RA_OF_ASC_NODE":"181.4631","APOAPSIS":"465.578","INCLINATION":"42.9987","REF_FRAME":"TEME","RCS_SIZE":"LARGE","OBJECT_TYPE":"PAYLOAD","MEAN_MOTION_DDOT":"0.0000000000000","ECCENTRICITY":"0.00014290","CLASSIFICATION_TYPE":"U","EPHEMERIS_TYPE":"0","MEAN_ANOMALY":"5.7425","OBJECT_NAME":"STARLINK-4643","TLE_LINE1":"1 54824U 22177E   23029.91668981 -.01185080  00000-0 -39111-1 0  9997","BSTAR":"-0.03911100000000","MEAN_MOTION":"15.33762512","ELEMENT_SET_NO":"999","GP_ID":"223960433","COUNTRY_CODE":"US","MEAN_MOTION_DOT":"-0.01185080","PERIOD":"93.887"},{"APOAPSIS":"464.373","REF_FRAME":"TEME","INCLINATION":"42.9978","CENTER_NAME":"EARTH","MEAN_ELEMENT_THEORY":"SGP4","TIME_SYSTEM":"UTC","RA_OF_ASC_NODE":"181.4366","SITE":"AFETR","FILE":"3765015","EPOCH":"2023-01-29T22:00:01.999584","SEMIMAJOR_AXIS":"6841.518","REV_AT_EPOCH":"130","TLE_LINE2":"2 54825  42.9978 181.4366 0001448 275.0074  17.9704 15.34172134  1309","OBJECT_ID":"2022-177F","LAUNCH_DATE":"2022-12-28","NORAD_CAT_ID":"54825","ARG_OF_PERICENTER":"275.0074","PERIAPSIS":"462.392","DECAY_DATE":null,"PERIOD":"93.862","MEAN_MOTION_DOT":"-0.01187020","COUNTRY_CODE":"US","ELEMENT_SET_NO":"999","GP_ID":"223960185","BSTAR":"-0.03867100000000","MEAN_MOTION":"15.34172134","OBJECT_NAME":"STARLINK-4801","TLE_LINE1":"1 54825U 22177F   23029.91668981 -.01187020  00000-0 -38671-1 0  9994","CLASSIFICATION_TYPE":"U","MEAN_ANOMALY":"17.9704","EPHEMERIS_TYPE":"0","ECCENTRICITY":"0.00014480","MEAN_MOTION_DDOT":"0.0000000000000","OBJECT_TYPE":"PAYLOAD","RCS_SIZE":"LARGE"},{"EPOCH":"2023-01-29T22:00:01.999584","NORAD_CAT_ID":"54826","LAUNCH_DATE":"2022-12-28","OBJECT_ID":"2022-177G","TLE_LINE2":"2 54826  42.9985 181.4155 0001470 267.2635  33.3969 15.34466021  1301","SEMIMAJOR_AXIS":"6840.644","REV_AT_EPOCH":"130","ARG_OF_PERICENTER":"267.2635","PERIAPSIS":"461.503","DECAY_DATE":null,"REF_FRAME":"TEME","INCLINATION":"42.9985","APOAPSIS":"463.515","RA_OF_ASC_NODE":"181.4155","MEAN_ELEMENT_THEORY":"SGP4","CENTER_NAME":"EARTH","TIME_SYSTEM":"UTC","FILE":"3765015","SITE":"AFETR","EPHEMERIS_TYPE":"0","MEAN_ANOMALY":"33.3969","CLASSIFICATION_TYPE":"U","TLE_LINE1":"1 54826U 22177G   23029.91668981 -.01189470  00000-0 -38395-1 0  9999","OBJECT_NAME":"STARLINK-5107","ECCENTRICITY":"0.00014700","MEAN_MOTION_DDOT":"0.0000000000000","RCS_SIZE":"LARGE","OBJECT_TYPE":"PAYLOAD","MEAN_MOTION_DOT":"-0.01189470","PERIOD":"93.844","COUNTRY_CODE":"US","GP_ID":"223958942","ELEMENT_SET_NO":"999","BSTAR":"-0.03839500000000","MEAN_MOTION":"15.34466021"},{"ELEMENT_SET_NO":"999","GP_ID":"223959191","MEAN_MOTION":"15.34917583","BSTAR":"-0.03781400000000","PERIOD":"93.816","MEAN_MOTION_DOT":"-0.01188683","COUNTRY_CODE":"US","MEAN_MOTION_DDOT":"0.0000000000000","OBJECT_TYPE":"PAYLOAD","RCS_SIZE":"LARGE","OBJECT_NAME":"STARLINK-5383","TLE_LINE1":"1 54827U 22177H   23029.91668981 -.01188683  00000-0 -37814-1 0  9990","CLASSIFICATION_TYPE":"U","EPHEMERIS_TYPE":"0","MEAN_ANOMALY":"46.4714","ECCENTRICITY":"0.00014900","TIME_SYSTEM":"UTC","CENTER_NAME":"EARTH","MEAN_ELEMENT_THEORY":"SGP4","RA_OF_ASC_NODE":"181.3851","SITE":"AFETR","FILE":"3765015","APOAPSIS":"462.186","INCLINATION":"42.9972","REF_FRAME":"TEME","PERIAPSIS":"460.148","ARG_OF_PERICENTER":"268.2585","DECAY_DATE":null,"EPOCH":"2023-01-29T22:00:01.999584","REV_AT_EPOCH":"130","SEMIMAJOR_AXIS":"6839.302","TLE_LINE2":"2 54827  42.9972 181.3851 0001490 268.2585  46.4714 15.34917583  1304","OBJECT_ID":"2022-177H","LAUNCH_DATE":"2022-12-28","NORAD_CAT_ID":"54827"},{"TIME_SYSTEM":"UTC","MEAN_ELEMENT_THEORY":"SGP4","CENTER_NAME":"EARTH","RA_OF_ASC_NODE":"181.3645","SITE":"AFETR","FILE":"3765015","APOAPSIS":"461.236","REF_FRAME":"TEME","INCLINATION":"42.9978","ARG_OF_PERICENTER":"272.5790","PERIAPSIS":"459.260","DECAY_DATE":null,"EPOCH":"2023-01-29T22:00:01.999584","REV_AT_EPOCH":"130","SEMIMAJOR_AXIS":"6838.383","TLE_LINE2":"2 54828  42.9978 181.3645 0001445 272.5790  49.9721 15.35227035  1301","OBJECT_ID":"2022-177J","LAUNCH_DATE":"2022-12-28","NORAD_CAT_ID":"54828","ELEMENT_SET_NO":"999","GP_ID":"223959937","BSTAR":"-0.03726800000000","MEAN_MOTION":"15.35227035","PERIOD":"93.797","MEAN_MOTION_DOT":"-0.01183733","COUNTRY_CODE":"US","MEAN_MOTION_DDOT":"0.0000000000000","OBJECT_TYPE":"PAYLOAD","RCS_SIZE":"LARGE","OBJECT_NAME":"STARLINK-5381","TLE_LINE1":"1 54828U 22177J   23029.91668981 -.01183733  00000-0 -37268-1 0  9995","CLASSIFICATION_TYPE":"U","MEAN_ANOMALY":"49.9721","EPHEMERIS_TYPE":"0","ECCENTRICITY":"0.00014450"},{"OBJECT_TYPE":"PAYLOAD","RCS_SIZE":"LARGE","MEAN_MOTION_DDOT":"0.0000000000000","ECCENTRICITY":"0.00011890","TLE_LINE1":"1 54829U 22177K   23029.91668981 -.01180040  00000-0 -38702-1 0  9998","OBJECT_NAME":"STARLINK-5380","EPHEMERIS_TYPE":"0","MEAN_ANOMALY":"11.8254","CLASSIFICATION_TYPE":"U","BSTAR":"-0.03870200000000","MEAN_MOTION":"15.33946612","GP_ID":"223960682","ELEMENT_SET_NO":"999","COUNTRY_CODE":"US","PERIOD":"93.875","MEAN_MOTION_DOT":"-0.01180040","DECAY_DATE":null,"ARG_OF_PERICENTER":"274.7809","PERIAPSIS":"463.240","OBJECT_ID":"2022-177K","TLE_LINE2":"2 54829  42.9983 181.4509 0001189 274.7809  11.8254 15.33946612  1304","REV_AT_EPOCH":"130","SEMIMAJOR_AXIS":"6842.188","NORAD_CAT_ID":"54829","LAUNCH_DATE":"2022-12-28","EPOCH":"2023-01-29T22:00:01.999584","SITE":"AFETR","FILE":"3765015","RA_OF_ASC_NODE":"181.4509","CENTER_NAME":"EARTH","TIME_SYSTEM":"UTC","MEAN_ELEMENT_THEORY":"SGP4","INCLINATION":"42.9983","REF_FRAME":"TEME","APOAPSIS":"464.867"}];
